C/2020 H7 (Lemmon),e,135.9235,323.5194,82.6780,1405,0.0000187,0.99685380,0.0000,06/02.9510/2020,2000,g 11.0,4.0
# From MPEC 2020-KB7
C/2020 H8 (PANSTARRS),p,06/06.7207/2020,99.7116,129.2192,4.678446,68.3225,2000,10.5,4.0
# From MPEC 2020-L06
A/2020 H9,e,137.8701,213.1200,312.8817,524.0121,0.0000822,0.99507818,0.0000,12/21.3372/2019,2000,g 18.0,2.0
# From MPEC 2020-L06
C/2020 J1 (SONEAR),e,142.2964,226.5854,341.7117,491.2874,0.0000905,0.99316065,0.0000,04/19.3256/2021,2000,g  8.5,3.2
# From MPEC 2020-L06
C/2020 K1 (PANSTARRS),h,05/08.1196/2023,89.6521,94.3675,213.9063,1.000804,3.074763,2000,5.5,4.0
# From MPEC 2020-KF5
C/2020 K2 (PANSTARRS),p,12/30.6730/2018,89.7510,34.2348,8.177098,285.5819,2000,6.5,4.0
# From MPEC 2020-KF9
C/2020 K3 (Leonard),p,06/01.0032/2020,129.0152,64.4924,1.583069,28.3546,2000,14.5,4.0
# From MPEC 2020-L06
C/2020 K4 (PANSTARRS),e,125.5621,264.0944,308.7645,23.89509,0.0084380,0.92664578,2.0273,10/30.0/2020,2000,g 16.5,4.0
# From MPEC 2020-L06
C/2020 K5 (PANSTARRS),h,06/05.5958/2021,67.1644,86.1609,249.6018,1.001466,1.535368,2000,11.0,4.0
# From MPEC 2020-L06
C/2020 K6 (Rankin),h,08/26.1971/2021,103.8024,291.5638,41.6731,1.000953,5.993569,2000,8.0,4.0
# From MPEC 2020-L09
C/2020 K7 (PANSTARRS),p,10/05.3027/2021,34.5520,60.8413,5.644571,287.4776,2000,8.0,4.0
# From MPEC 2020-SI8
C/2020 K8 (Catalina-ATLAS),h,09/14.5161/2020,31.4136,181.5193,260.0551,1.000319,0.474611,2000,15.0,3.2
# From MPEC 2020-SI8
P/2020 K9 (Lemmon-PANSTARRS),e,23.2066,166.2394,196.8551,4.201857,0.1144306,0.32183559,348.0162,10/30.0/2020,2000,g 12.5,4.0
# From MPEC 2020-K19
P/2020 M1 (PANSTARRS),e,8.6353,142.9329,67.9515,5.095669,0.0856845,0.47770778,26.8654,10/30.0/2020,2000,g 14.5,4.0
# From MPEC 2020-N01
P/2020 M2 (Lemmon),e,10.9285,8.2098,14.4016,3.826119,0.1316941,0.40490156,17.4777,10/30.0/2020,2000,g 12.0,4.0
# From MPEC 2020-SI8
C/2020 M3 (ATLAS),e,23.4729,71.2482,328.4483,26.78278,0.0071108,0.95264796,0.0311,10/30.0/2020,2000,g 14.5,4.0
# From MPEC 2020-K19
A/2020 M4,e,160.1255,348.6316,104.6338,5575,0.0000024,0.99893226,0.0000,11/23.7205/2020,2000,g 14.5,2.0
# From MPEC 2020-SI8
C/2020 M5 (ATLAS),e,93.2225,352.0980,126.3371,7741,0.0000014,0.99961187,0.0000,08/19.8932/2021,2000,g  9.0,4.0
# From MPEC 2020-SI8
C/2020 N1 (PANSTARRS),h,03/12.2329/2021,29.7037,279.9821,186.7741,1.000427,1.320683,2000,12.5,4.0
# From MPEC 2020-K19
C/2020 N2 (ATLAS),e,161.0353,257.0577,331.1621,126.5847,0.0006920,0.98582557,0.0000,08/23.6145/2020,2000,g 16.0,3.2
# From MPEC 2020-SI8
P/2020 O1 (Lemmon-PANSTARRS),e,5.2246,175.9783,104.7280,2.645720,0.2290278,0.11969373,41.1355,10/30.0/2020,2000,g 15.5,4.0
# From MPEC 2020-K19
C/2020 O2 (Amaral),e,71.8914,256.6300,9.3981,21758,0.0000003,0.99977461,0.0000,08/23.9101/2021,2000,g  8.0,3.2
# From MPEC 2020-SI8
P/2020 O3 (PANSTARRS),e,8.4415,266.8810,81.3723,4.659429,0.0979952,0.10574303,351.0788,10/30.0/2020,2000,g 12.0,4.0
# From MPEC 2020-SI8
C/2020 P1 (NEOWISE),h,10/20.1770/2020,45.0690,53.5466,8.8873,1.000627,0.342054,2000,14.0,3.2
# From MPEC 2020-SI8
C/2020 P3 (ATLAS),e,61.8906,19.5069,82.2657,22315,0.0000003,0.99969471,0.0000,04/21.1873/2021,2000,g  6.0,4.0
# From MPEC 2020-QN1
C/2020 P4-A (SOHO),h,08/08.2178/2020,26.3315,175.2063,177.4770,1.002092,0.090758,2000,5.3,6.0
# From MPEC 2020-QN1
C/2020 P4-B (SOHO),h,08/08.1270/2020,27.3015,171.4990,173.4043,1.000486,0.098304,2000,0.0,6.0
# From MPEC 2020-QN1
C/2020 P4-C (SOHO),h,08/06.8015/2020,37.4581,164.0409,116.7342,1.012860,0.086549,2000,-1.6,6.0
# From MPEC 2020-SI8
C/2020 Q1 (Borisov),e,142.9240,52.3601,9.8041,52.66468,0.0025788,0.97504077,0.0000,08/14.5702/2020,2000,g 14.0,4.0
# From MPEC 2020-SI8
C/2020 R2 (PANSTARRS),e,53.2377,195.0833,211.7309,447.9187,0.0001040,0.98952759,0.0000,02/24.2493/2022,2000,g  9.0,4.0
# From MPEC 2020-SI8
C/2020 R4 (ATLAS),e,164.4629,323.2727,46.7023,98.47856,0.0010085,0.98955369,0.0000,03/01.9305/2021,2000,g 13.5,4.0
# From MPEC 2020-U96
P/2020 R5 (PANSTARRS),e,11.4543,272.9703,82.3292,4.979013,0.0887134,0.31449280,13.7285,10/30.0/2020,2000,g  9.5,6.0
# From MPEC 2020-U96
C/2020 R6 (Rankin),e,81.2774,12.6175,269.3065,373.2844,0.0001367,0.99198325,0.0000,09/11.2892/2019,2000,g 11.0,4.0
# From MPEC 2020-U96
C/2020 R7 (ATLAS),e,114.8962,268.2915,347.8615,4138,0.0000037,0.99928600,0.0000,09/16.2208/2022,2000,g  9.0,4.0
# From MPEC 2020-U96
P/2020 S1 (PANSTARRS),e,13.7340,129.4590,254.8720,5.980293,0.0673939,0.50716331,354.6819,10/30.0/2020,2000,g 14.0,4.0
# From MPEC 2020-U96
C/2020 S2 (PANSTARRS),e,22.3980,197.6853,202.2650,10.17951,0.0303469,0.82749309,358.3935,10/30.0/2020,2000,g 17.0,4.0
# From MPEC 2020-U96
C/2020 S3 (Erasmus),e,19.8636,223.0194,349.7894,313.4678,0.0001776,0.99872657,0.0000,12/12.6717/2020,2000,g 13.5,3.2
# From MPEC 2020-U96
C/2020 S4 (PANSTARRS),e,20.5725,117.7561,21.0695,1896,0.0000119,0.99822285,0.0000,02/10.8243/2023,2000,g  8.5,3.2
# From MPEC 2020-U96
P/2020 S5 (PANSTARRS),e,12.3541,315.9985,53.0297,4.047916,0.1210199,0.33823341,9.9930,10/30.0/2020,2000,g 14.5,4.0
# From MPEC 2020-UF1
P/2020 S6 (Leonard),e,15.4604,242.5711,176.6537,3.599092,0.1443493,0.47907485,356.4473,10/30.0/2020,2000,g 16.0,4.0
# From MPEC 2020-UO3
P/2020 S7 (PANSTARRS),e,16.0924,328.0192,40.4027,5.023363,0.0875411,0.41054925,358.3311,10/30.0/2020,2000,g 14.5,4.0
# From MPEC 2020-U04
C/2020 S8 (Lemmon),e,108.5175,24.0517,160.3284,268.8680,0.0002236,0.99120776,0.0000,04/10.9257/2021,2000,g 12.5,4.0
# From MPEC 2020-UH0
C/2020 T2 (Palomar),e,27.8729,83.0527,150.3690,323.4098,0.0001695,0.99364644,0.0000,07/11.1186/2021,2000,g 11.0,3.2
# From MPEC 2020-UJ7
P/2020 T3 (PANSTARRS),e,7.2955,74.0192,357.0417,3.516562,0.1494605,0.59148099,347.6752,10/30.0/2020,2000,g 18.0,3.2
# From MPEC 2020-UJ8
C/2020 T4 (PANSTARRS),h,07/05.2154/2021,83.8210,50.6224,79.6089,1.000308,2.191474,2000,13.0,3.2
# From MPEC 2020-UP1
C/2020 T5 (Lemmon),e,66.6041,237.8617,90.2919,929.0895,0.0000348,0.99796679,0.0000,10/09.6214/2020,2000,g 16.0,4.0
# From MPEC 2020-UP2
P/2020 U2 (PANSTARRS),e,6.4216,342.9047,84.6403,3.777384,0.1342509,0.51051901,352.3880,10/30.0/2020,2000,g 18.0,4.0
# From MPEC 2020-UP4
C/2020 U3 (Rankin),e,30.1768,282.6784,124.2608,64.58346,0.0018990,0.96475586,359.8121,10/30.0/2020,2000,g 15.0,4.0
# From MPEC 2020-UQ0
C/2020 U4 (PANSTARRS),h,04/07.6603/2022,167.0374,120.0212,69.5154,1.002734,5.353822,2000,7.0,4.0
# From MPEC 2020-UQ1
C/2020 U5 (PANSTARRS),e,97.2643,107.3427,75.3932,1416,0.0000185,0.99734530,0.0000,04/28.3982/2022,2000,g  8.0,4.0
# From  98, 1083
1P/Halley,e,162.2889,58.4176,111.3558,17.87153,0.0130455,0.96616554,165.6382,10/30.0/2020,2000,g  4.0,6.0
# From MPC118097
2P/Encke,e,11.7660,334.5464,186.5698,2.215674,0.2988445,0.84803370,37.6992,10/30.0/2020,2000,g 11.5,6.0
# From MPEC 2015-A10
4P/Faye,e,8.0082,193.0414,206.9019,3.828435,0.1315746,0.57737302,318.6440,10/30.0/2020,2000,g  8.0,6.0
# From MPEC 2015-S97
6P/d'Arrest,e,19.5122,138.9346,178.0996,3.497508,0.1506836,0.61262121,311.3620,10/30.0/2020,2000,g  9.0,4.0
# From MPEC 2015-E14
7P/Pons-Winnecke,e,22.3636,93.3774,172.5827,3.414545,0.1562085,0.63850485,327.3367,10/30.0/2020,2000,g  9.0,4.0
# From MPEC 2020-SI8
8P/Tuttle,e,54.9117,270.2050,207.4905,5.704461,0.0723406,0.82012395,338.1707,10/30.0/2020,2000,g  8.0,8.0
# From MPEC 2019-JE2
9P/Tempel,e,10.4710,68.7300,179.3209,3.147271,0.1765236,0.50940652,273.3513,10/30.0/2020,2000,g  9.0,4.0
# From MPC114607
10P/Tempel,e,12.0398,117.8095,195.5182,3.060750,0.1840612,0.53853508,333.2567,10/30.0/2020,2000,g  5.0,10.0
# From MPEC 2017-L52
11P/Tempel-Swift-LINEAR,e,14.4206,238.9168,167.9456,3.282799,0.1657057,0.57694934,355.4887,10/30.0/2020,2000,g  9.0,4.0
# From  27, 604
12P/Pons-Brooks,e,74.0916,255.7272,199.0304,17.10270,0.0139350,0.95431228,342.3164,10/30.0/2020,2000,g  5.0,6.0
# From  27, 604
13P/Olbers,e,44.6258,85.8669,64.5202,16.68530,0.0144612,0.92971155,340.6155,10/30.0/2020,2000,g  5.0,6.0
# From MPC100283
14P/Wolf,e,27.9050,202.0712,158.9879,4.259076,0.1121324,0.35672410,119.1665,10/30.0/2020,2000,g  5.5,12.0
# From MPC 92276
15P/Finlay,e,6.7976,13.7216,347.8343,3.504581,0.1502276,0.71699951,321.4580,10/30.0/2020,2000,g 12.0,4.0
# From MPC 92276
16P/Brooks,e,3.0116,138.8690,245.1549,3.657966,0.1408785,0.48657060,336.0354,10/30.0/2020,2000,g  7.5,10.0
# From MPEC 2020-SI8
17P/Holmes,e,19.0304,326.6203,24.4752,3.637983,0.1420408,0.42808286,343.9727,10/30.0/2020,2000,g 10.0,6.0
# From MPC 92984
19P/Borrelly,e,29.3564,74.3633,351.8311,3.606498,0.1439049,0.63815789,293.8530,10/30.0/2020,2000,g  4.5,10.0
# From MPC111773
21P/Giacobini-Zinner,e,32.0191,195.3595,172.8491,3.495932,0.1507855,0.71073680,117.6949,10/30.0/2020,2000,g  9.0,6.0
# From MPC 94283
22P/Kopff,e,4.7420,120.8371,162.9715,3.442529,0.1543077,0.54888653,282.2249,10/30.0/2020,2000,g  3.0,10.4
# From MPC 14747
23P/Brorsen-Metcalf,e,19.1329,312.4201,128.8143,16.95352,0.0141193,0.97110039,0.0000,08/09.9005/1989,2000,g 10.0,6.0
# From MPC110085
24P/Schaumasse,e,11.6241,79.1337,57.8727,4.055147,0.1206964,0.70891737,130.1387,10/30.0/2020,2000,g  6.5,14.0
# From MPC 94674
26P/Grigg-Skjellerup,e,22.4411,211.5399,2.1916,3.014000,0.1883602,0.64054974,143.0504,10/30.0/2020,2000,g 12.0,16.0
# From MPC 78188
27P/Crommelin,e,29.1510,250.5860,195.9809,9.188662,0.0353855,0.91803435,119.8165,10/30.0/2020,2000,g 12.0,8.0
# From MPEC 2020-SI8
28P/Neujmin,e,14.3109,346.3374,347.4206,6.978269,0.0534666,0.77384967,352.8940,10/30.0/2020,2000,g  8.5,6.0
# From MPEC 2020-U96
29P/Schwassmann-Wachmann,e,9.3668,312.3751,48.5375,6.034966,0.0664801,0.04428121,39.3466,10/30.0/2020,2000,g  4.0,4.0
# From MPC110085
30P/Reinmuth,e,8.6085,118.9346,11.2321,3.675253,0.1398857,0.53290134,162.0580,10/30.0/2020,2000,g  9.5,6.0
# From MPC108597
31P/Schwassmann-Wachmann,e,4.5473,114.1140,18.2322,4.240474,0.1128710,0.19233283,54.4734,10/30.0/2020,2000,g  5.0,8.0
# From MPC 92276
32P/Comas Sola,e,9.9154,57.2936,53.5693,4.496276,0.1033772,0.55858371,228.2543,10/30.0/2020,2000,g  6.5,8.0
# From MPEC 2013-O31
